INMARSAT 4-F2 (SOUTHPA*)
1 28899U 05044A   26200.79133250 -.00000266  00000+0  00000+0 0  9992
2 28899   5.1378  43.6793 0002888  61.9307 260.3339  1.00271206 75845
GSAT-8 (GAGAN/PRN 127)  
1 37605U 11022A   26200.78586361  .00000080  00000+0  00000+0 0  9997
2 37605   2.2134  81.4274 0002614 153.3965  40.7349  1.00271224 53549
LUCH 5A (SDCM/PRN 140)  
1 37951U 11074B   26200.57400132 -.00000057  00000+0  00000+0 0  9991
2 37951   8.8342  73.3299 0002776  60.6479 177.0379  1.00274063 53374
SES-5 (EGNOS/PRN 136)   
1 38652U 12036A   26200.80114023  .00000031  00000+0  00000+0 0  9997
2 38652   0.0443 319.3493 0001782 165.8431 105.7799  1.00277397 44782
GSAT-10 (GAGAN/PRN 128) 
1 38779U 12051B   26200.85065522 -.00000168  00000+0  00000+0 0  9990
2 38779   0.0786 264.0945 0007561 191.3058 231.4739  1.00272761 50429
LUCH 5B (SDCM/PRN 125)  
1 38977U 12061A   26200.83102602 -.00000146  00000+0  00000+0 0  9996
2 38977  10.5527  49.5557 0003793 146.0693  24.8591  1.00270427 49939
ASTRA 5B (EGNOS/PRN 123)
1 39617U 14011B   26200.86832747  .00000134  00000+0  00000+0 0  9994
2 39617   0.0669 307.7769 0002077 178.4295 147.4840  1.00270788 44997
LUCH 5V (SDCM/PRN 141)  
1 39727U 14023A   26200.88894001 -.00000275  00000+0  00000+0 0  9999
2 39727   5.2120  69.4056 0002135  81.4100 201.6127  1.00272135 44687
GSAT-15 (GAGAN/PRN 139) 
1 41028U 15065A   26200.85273522 -.00000261  00000+0  00000+0 0  9994
2 41028   0.1055 263.6600 0003536 177.0626 257.4019  1.00272071 39120
EUTELSAT 117 WEST B (W*)
1 41589U 16038B   26200.61572735 -.00000015  00000+0  00000+0 0  9996
2 41589   0.0049 198.0505 0000074 356.7509 207.2723  1.00268548 36989
SES-15 (WAAS/PRN 133)   
1 42709U 17026A   26200.62127948  .00000055  00000+0  00000+0 0  9995
2 42709   0.0290 316.1945 0000921 169.7206 266.0111  1.00278793  7750
QZS-2 (QZSS/PRN 194)    
1 42738U 17028A   26200.43631451 -.00000145  00000+0  00000+0 0  9998
2 42738  39.3809 242.6784 0756999 269.6501  84.4438  1.00275667  7951
QZS-3 (QZSS/PRN 199)    
1 42917U 17048A   26200.78803917 -.00000351  00000+0  00000+0 0  9994
2 42917   0.0599 208.7772 0002728 277.8833 221.6372  1.00270341 32587
QZS-4 (QZSS/PRN 195)    
1 42965U 17062A   26200.72085770 -.00000359  00000+0  00000+0 0  9994
2 42965  40.0889 343.0703 0747038 268.6623  84.6148  1.00289629 32136
BEIDOU-3 G1 (PRN 130)   
1 43683U 18085A   26200.79453920 -.00000114  00000+0  00000+0 0  9990
2 43683   2.9495  96.4917 0008118 356.8591 290.2405  1.00272582 28386
EUTELSAT 5 WEST B (EGN*)
1 44624U 19067A   26200.83319269 -.00000046  00000+0  00000+0 0  9993
2 44624   0.0767 321.9098 0003149 156.0374 114.6048  1.00271431 24769
BEIDOU-3 G2 (PRN 144)   
1 45344U 20017A   26200.85004855 -.00000145  00000+0  00000+0 0  9994
2 45344   2.9292  47.8093 0001863  58.1202 217.7395  1.00272423 23586
BEIDOU-3 G3 (PRN 143)   
1 45807U 20040A   26199.71551705 -.00000361  00000+0  00000+0 0  9997
2 45807   2.5232  67.4992 0002227 309.4166 287.6963  1.00274773 22386
GALAXY 30 (WAAS/PRN 135)
1 46114U 20056C   26200.62127948  .00000033  00000+0  00000+0 0  9992
2 46114   0.0202  54.5695 0002236  64.2335 277.2654  1.00272994 21619
QZS-1R (QZSS/PRN 196)   
1 49336U 21096A   26200.56101544 -.00000322  00000+0  00000+0 0  9995
2 49336  37.5263  79.1015 0755512 272.3091 279.1178  1.00244085 17338
QZS-6 (QZSS/PRN 200)    
1 62876U 25023A   26200.85212854 -.00000237  00000+0  00000+0 0  9997
2 62876   0.0125  41.0875 0001932  73.9306 219.8516  1.00274461  5278
